     3.04           N: GNSS NAV DATA    M: Mixed            RINEX VERSION / TYPE
CONVBIN EX 2.5.0                        20260701 150541 UTC PGM / RUN BY / DATE 
format: RTCM 3                                              COMMENT             
log: D:\code\rtklib_java\rtk_compare\base_all.rtcm3         COMMENT             
                                                            END OF HEADER       
C38 2026 07 03 21 00 00  .141166732647D-03  .786037901435D-12  .000000000000D+00
      .100000000000D+01  .129984375000D+03  .401409577463D-08 -.123903395807D+01
      .659655779600D-05  .574706587940D-03  .277860090137D-05  .528266718102D+04
      .507600000000D+06  .274740159512D-07  .527736438478D+00 -.465661287308D-07
      .940992677631D+00  .293093750000D+03  .109343345501D+01 -.712136806214D-08
      .267153985179D-09  .000000000000D+00  .106900000000D+04  .000000000000D+00
      .200000000000D+01  .000000000000D+00 -.330000000000D-08 -.330000000000D-08
      .508621000000D+06  .100000000000D+01
C01 2026 07 03 21 00 00 -.810832716525D-06 -.799360577730D-14  .000000000000D+00
      .100000000000D+01 -.413906250000D+03 -.140970157687D-08 -.241713917169D+01
     -.136466696858D-04  .486825476401D-03  .108070671558D-04  .649344135284D+04
      .507600000000D+06 -.121537595987D-06  .236345539881D+01 -.614672899246D-07
      .899332488008D-01 -.327593750000D+03  .181337933375D+01  .259332230800D-08
      .702172105430D-09  .000000000000D+00  .106900000000D+04  .000000000000D+00
      .200000000000D+01  .000000000000D+00  .450000000000D-08  .450000000000D-08
      .508846000000D+06  .100000000000D+01
C02 2026 07 03 21 00 00  .210013240576D-06 -.914823772291D-13  .000000000000D+00
      .100000000000D+01 -.374375000000D+03  .479662837025D-09 -.247593870033D+01
     -.123865902424D-04  .267331372015D-03  .136881135404D-04  .649341546631D+04
      .507600000000D+06 -.155065208673D-06  .243963219986D+01 -.372529029846D-08
      .137851130487D+00 -.418093750000D+03  .749780091693D+00  .694671793011D-09
      .746459664470D-09  .000000000000D+00  .106900000000D+04  .000000000000D+00
      .200000000000D+01  .000000000000D+00  .473000000000D-07  .473000000000D-07
      .508921000000D+06  .100000000000D+01
C06 2026 07 03 21 00 00  .295974663459D-03  .184652293456D-11  .000000000000D+00
      .100000000000D+01 -.627843750000D+03  .666813489744D-09  .154982983608D+01
     -.203833915293D-04  .247853167821D-02  .819284468889D-05  .649308080864D+04
      .507600000000D+06  .316649675369D-07  .224094065882D+01  .786967575550D-07
      .102462564004D+01  .937500000000D-01 -.240760110966D+01 -.176614499560D-08
     -.148220459691D-09  .000000000000D+00  .106900000000D+04  .000000000000D+00
      .200000000000D+01  .000000000000D+00  .230000000000D-08  .230000000000D-08
      .510496000000D+06  .100000000000D+01
C34 2026 07 03 22 00 00  .970770488493D-03 -.172217795580D-11  .000000000000D+00
      .100000000000D+01  .120828125000D+03  .393194949576D-08  .941387052549D-02
      .603031367064D-05  .593774369918D-03  .328943133354D-05  .528262189293D+04
      .511200000000D+06 -.349245965481D-07  .531174794819D+00  .209547579288D-07
      .944075740910D+00  .285921875000D+03  .119260181160D+01 -.699779148610D-08
      .182507602174D-09  .000000000000D+00  .106900000000D+04  .000000000000D+00
      .200000000000D+01  .000000000000D+00 -.620000000000D-08 -.620000000000D-08
      .511246000000D+06  .100000000000D+01
C38 2026 07 03 22 00 00  .141169759445D-03  .810906897186D-12  .000000000000D+00
      .100000000000D+01  .124234375000D+03  .398588031363D-08 -.752972334012D+00
      .626267865300D-05  .573788187467D-03  .320887193084D-05  .528266472816D+04
      .511200000000D+06  .717118382454D-07  .527710966148D+00  .153668224812D-07
      .940993940129D+00  .286015625000D+03  .109492772781D+01 -.705565103904D-08
      .249653256203D-09  .000000000000D+00  .106900000000D+04  .000000000000D+00
      .200000000000D+01  .000000000000D+00 -.330000000000D-08 -.330000000000D-08
      .511396000000D+06  .100000000000D+01
C01 2026 07 03 22 00 00 -.811181962490D-06 -.479616346638D-13  .000000000000D+00
      .100000000000D+01 -.232625000000D+03  .197865384745D-09 -.214782907713D+01
     -.763311982155D-05  .485163298436D-03  .153738074005D-04  .649345027924D+04
      .511200000000D+06 -.168103724718D-06  .262013239700D+01 -.689178705215D-07
      .877148081424D-01 -.465656250000D+03  .154989431420D+01  .925038531568D-09
      .763603235711D-09  .000000000000D+00  .106900000000D+04  .000000000000D+00
      .200000000000D+01  .000000000000D+00  .450000000000D-08  .450000000000D-08
      .511546000000D+06  .100000000000D+01
C02 2026 07 03 22 00 00  .210013240576D-06 -.515143483426D-13  .000000000000D+00
      .100000000000D+01 -.212984375000D+03  .144577450803D-08 -.222445638526D+01
     -.709807500243D-05  .269086915068D-03  .158115290105D-04  .649340718269D+04
      .511200000000D+06 -.129919499159D-06  .260582448179D+01  .125728547573D-07
      .136348856986D+00 -.480343750000D+03  .594052800089D+00 -.227152318949D-09
      .728244620026D-09  .000000000000D+00  .106900000000D+04  .000000000000D+00
      .200000000000D+01  .000000000000D+00  .473000000000D-07  .473000000000D-07
      .511621000000D+06  .100000000000D+01
C03 2026 07 03 22 00 00 -.269385054708D-06  .586197757002D-13  .000000000000D+00
      .100000000000D+01 -.834531250000D+02  .226473719254D-08 -.812267206715D+00
     -.277720391750D-05  .250629847869D-03  .169100239873D-04  .649335485268D+04
      .511200000000D+06 -.968575477600D-07  .273123633793D+01  .479631125927D-07
      .130562422038D+00 -.512203125000D+03 -.411437929996D+00 -.104825794987D-08
      .775032283206D-09  .000000000000D+00  .106900000000D+04  .000000000000D+00
      .200000000000D+01  .000000000000D+00  .353000000000D-07  .353000000000D-07
      .511696000000D+06  .100000000000D+01
C04 2026 07 03 22 00 00 -.493251718581D-06 -.470734562441D-13  .000000000000D+00
      .100000000000D+01  .317812500000D+02  .260439419776D-08 -.784920753249D+00
      .112876296043D-05  .868659350090D-03  .159544870257D-04  .649345215034D+04
      .511200000000D+06 -.150874257088D-06  .292020336071D+01 -.120606273413D-06
      .132920347546D+00 -.483015625000D+03  .235376527669D+00 -.150363406097D-08
      .883608234401D-09  .000000000000D+00  .106900000000D+04  .000000000000D+00
      .200000000000D+01  .000000000000D+00  .417000000000D-07  .417000000000D-07
      .511771000000D+06  .100000000000D+01
C06 2026 07 03 22 00 00  .295981531963D-03  .186606285979D-11  .000000000000D+00
      .100000000000D+01 -.642671875000D+03  .614311302817D-09  .181173795722D+01
     -.207084231079D-04  .247787125409D-02  .792508944869D-05  .649308498383D+04
      .511200000000D+06  .302679836750D-07  .224093428343D+01  .735744833946D-07
      .102462512363D+01  .121093750000D+02 -.240695224697D+01 -.176400204919D-08
     -.147148986489D-09  .000000000000D+00  .106900000000D+04  .000000000000D+00
      .200000000000D+01  .000000000000D+00  .230000000000D-08  .230000000000D-08
      .511846000000D+06  .100000000000D+01
C07 2026 07 03 22 00 00 -.267400173470D-04 -.718536341537D-12  .000000000000D+00
      .100000000000D+01  .246875000000D+01  .175221584397D-08 -.152050848271D+00
     -.101048499346D-06  .385157810524D-02  .335462391376D-05  .649356656647D+04
      .511200000000D+06 -.637955963612D-07 -.192739637029D+01 -.165775418282D-06
      .963404992222D+00  .125671875000D+03 -.254092145411D+01 -.197258216596D-08
     -.996470078407D-10  .000000000000D+00  .106900000000D+04  .000000000000D+00
      .200000000000D+01  .000000000000D+00  .640000000000D-08  .640000000000D-08
      .511921000000D+06  .100000000000D+01
C08 2026 07 03 22 00 00 -.244098366238D-03 -.327737836869D-11  .000000000000D+00
      .100000000000D+01  .673000000000D+03  .639669501945D-09 -.192530777239D+01
      .220681540668D-04  .454062956851D-02  .707013532519D-05  .649310379028D+04
      .511200000000D+06 -.197440385818D-06  .202089728568D+00 -.270083546638D-07
      .956964109168D+00  .342812500000D+02 -.290854907649D+01 -.174221542741D-08
      .478591363823D-10  .000000000000D+00  .106900000000D+04  .000000000000D+00
      .200000000000D+01  .000000000000D+00  .900000000000D-09  .900000000000D-09
      .511996000000D+06  .100000000000D+01
C10 2026 07 03 22 00 00 -.773784006014D-03  .471178651651D-11  .000000000000D+00
      .100000000000D+01 -.671875000000D+01  .172364322523D-08 -.808595413999D+00
     -.519677996635D-06  .103397013154D-01  .355672091246D-05  .649389493752D+04
      .511200000000D+06 -.128056854010D-06 -.185411551359D+01 -.656582415104D-07
      .962417753660D+00  .124281250000D+03 -.213707005489D+01 -.195972448753D-08
     -.205722854897D-09  .000000000000D+00  .106900000000D+04  .000000000000D+00
      .200000000000D+01  .000000000000D+00 -.290000000000D-08  .480000000000D-08
      .512071000000D+06  .100000000000D+01
C24 2026 07 03 22 00 00 -.455240835436D-03 -.349844597736D-10  .000000000000D+00
      .100000000000D+01 -.101718750000D+02  .445161399902D-08  .275847819568D+01
     -.681728124619D-06  .585444970056D-03  .564567744732D-05  .528265069389D+04
      .511200000000D+06 -.391155481339D-07 -.152239543784D+01 -.465661287308D-09
      .943374385798D+00  .236140625000D+03  .528055334139D+00 -.694707508785D-08
     -.469662420468D-09  .000000000000D+00  .106900000000D+04  .000000000000D+00
      .200000000000D+01  .000000000000D+00  .410000000000D-08  .410000000000D-08
      .512296000000D+06  .100000000000D+01
